{
    "links": {
        "self": "http://www.neowsapp.com/rest/v1/neo/54016206?api_key=iIulBulltgU6a56xZRHN4H3l9WmuAYTsLGpBGhQ2"
    },
    "id": "54016206",
    "neo_reference_id": "54016206",
    "name": "(2020 FO)",
    "designation": "2020 FO",
    "nasa_jpl_url": "http://ssd.jpl.nasa.gov/sbdb.cgi?sstr=54016206",
    "absolute_magnitude_h": 25.922,
    "estimated_diameter": {
        "kilometers": {
            "estimated_diameter_min": 0.0173842107,
            "estimated_diameter_max": 0.0388722768
        },
        "meters": {
            "estimated_diameter_min": 17.3842106812,
            "estimated_diameter_max": 38.8722768182
        },
        "miles": {
            "estimated_diameter_min": 0.0108020444,
            "estimated_diameter_max": 0.0241541055
        },
        "feet": {
            "estimated_diameter_min": 57.0348137711,
            "estimated_diameter_max": 127.5337206763
        }
    },
    "is_potentially_hazardous_asteroid": false,
    "close_approach_data": [
        {
            "close_approach_date": "2015-03-13",
            "close_approach_date_full": "2015-Mar-13 22:32",
            "epoch_date_close_approach": 1426285920000,
            "relative_velocity": {
                "kilometers_per_second": "19.2877770777",
                "kilometers_per_hour": "69435.9974796516",
                "miles_per_hour": "43144.8285450646"
            },
            "miss_distance": {
                "astronomical": "0.0545601443",
                "lunar": "21.2238961327",
                "kilometers": "8162081.374172641",
                "miles": "5071682.1888828058"
            },
            "orbiting_body": "Earth"
        },
        {
            "close_approach_date": "2018-08-25",
            "close_approach_date_full": "2018-Aug-25 16:29",
            "epoch_date_close_approach": 1535214540000,
            "relative_velocity": {
                "kilometers_per_second": "25.8691821096",
                "kilometers_per_hour": "93129.0555944894",
                "miles_per_hour": "57866.7734609204"
            },
            "miss_distance": {
                "astronomical": "0.278535264",
                "lunar": "108.350217696",
                "kilometers": "41668282.21428768",
                "miles": "25891469.964542784"
            },
            "orbiting_body": "Earth"
        },
        {
            "close_approach_date": "2020-03-14",
            "close_approach_date_full": "2020-Mar-14 10:15",
            "epoch_date_close_approach": 1584180900000,
            "relative_velocity": {
                "kilometers_per_second": "20.0470910836",
                "kilometers_per_hour": "72169.5279010864",
                "miles_per_hour": "44843.3380449834"
            },
            "miss_distance": {
                "astronomical": "0.0302709326",
                "lunar": "11.7753927814",
                "kilometers": "4528467.039873562",
                "miles": "2813858.9382046756"
            },
            "orbiting_body": "Earth"
        },
        {
            "close_approach_date": "2023-09-07",
            "close_approach_date_full": "2023-Sep-07 12:31",
            "epoch_date_close_approach": 1694089860000,
            "relative_velocity": {
                "kilometers_per_second": "21.7178901779",
                "kilometers_per_hour": "78184.4046404339",
                "miles_per_hour": "48580.7485389407"
            },
            "miss_distance": {
                "astronomical": "0.1046362968",
                "lunar": "40.7035194552",
                "kilometers": "15653367.125967816",
                "miles": "9726551.3058992208"
            },
            "orbiting_body": "Venus"
        },
        {
            "close_approach_date": "2025-03-15",
            "close_approach_date_full": "2025-Mar-15 13:47",
            "epoch_date_close_approach": 1742046420000,
            "relative_velocity": {
                "kilometers_per_second": "20.5819104902",
                "kilometers_per_hour": "74094.8777645735",
                "miles_per_hour": "46039.6755754373"
            },
            "miss_distance": {
                "astronomical": "0.034232571",
                "lunar": "13.316470119",
                "kilometers": "5121119.70622377",
                "miles": "3182116.228757226"
            },
            "orbiting_body": "Earth"
        }
    ],
    "orbital_data": {
        "orbit_id": "1",
        "orbit_determination_date": "2020-03-17 15:12:22",
        "first_observation_date": "2020-03-16",
        "last_observation_date": "2020-03-17",
        "data_arc_in_days": 1,
        "observations_used": 27,
        "orbit_uncertainty": "8",
        "minimum_orbit_intersection": ".0293054",
        "jupiter_tisserand_invariant": "5.209",
        "epoch_osculation": "2458925.5",
        "eccentricity": ".4575947716570995",
        "semi_major_axis": "1.161298837598874",
        "inclination": "29.94156313054348",
        "ascending_node_longitude": "356.2926738753252",
        "orbital_period": "457.1033602386775",
        "perihelion_distance": ".629894561182162",
        "perihelion_argument": "75.58445180277052",
        "aphelion_distance": "1.692703114015585",
        "perihelion_time": "2458860.714912245794",
        "mean_anomaly": "51.02266493804859",
        "mean_motion": ".7875680454679337",
        "equinox": "J2000",
        "orbit_class": {
            "orbit_class_type": "APO",
            "orbit_class_description": "Near-Earth asteroid orbits which cross the Earth’s orbit similar to that of 1862 Apollo",
            "orbit_class_range": "a (semi-major axis) > 1.0 AU; q (perihelion) < 1.017 AU"
        }
    },
    "is_sentry_object": false
}